STARLINK-35896          
1 66824U 25280D   26198.87134438  .00002597  00000+0  22538-3 0  9992
2 66824  70.0024   6.3146 0002844 267.1764  92.9070 14.98330598 35579
STARLINK-35476          
1 66825U 25280E   26198.87970873  .00001872  00000+0  16471-3 0  9998
2 66825  70.0040   6.3422 0002073 281.0011  79.0915 14.98319162 35566
STARLINK-35898          
1 66826U 25280F   26198.89637518  .00002560  00000+0  22223-3 0  9994
2 66826  70.0023   5.9987 0002887 267.4000  92.6829 14.98337860 35580
STARLINK-35959          
1 66827U 25280G   26198.86298875  .00002550  00000+0  22143-3 0  9991
2 66827  70.0021   6.2829 0002797 263.5736  96.5105 14.98335590 35578
STARLINK-35982          
1 66828U 25280H   26198.87551620  .00002621  00000+0  22738-3 0  9992
2 66828  70.0022   6.3273 0002766 266.6162  93.4681 14.98332816 35570
STARLINK-36084          
1 66829U 25280J   26198.91305055  .00001811  00000+0  15948-3 0  9992
2 66829  70.0022   6.0557 0002928 262.7969  97.2857 14.98334593 35587
STARLINK-35881          
1 66830U 25280K   26198.88386316  .00002548  00000+0  22120-3 0  9997
2 66830  70.0022   6.3595 0002761 265.6716  94.4128 14.98334215 35571
STARLINK-35788          
1 66831U 25280L   26198.90051778  .00010104  00000+0  85238-3 0  9998
2 66831  70.0024   6.0130 0003062 267.1344  92.9465 14.98376260 35589
STARLINK-35768          
1 66832U 25280M   26198.86716209  .00001920  00000+0  16863-3 0  9995
2 66832  70.0019   6.2974 0003122 262.5290  97.5515 14.98333621 35578
STARLINK-35858          
1 66833U 25280N   26198.85044442  .00012036  00000+0  10137-2 0  9995
2 66833  70.0026   6.2404 0002308 266.8028  93.2867 14.98373867 35575
STARLINK-35840          
1 66834U 25280P   26198.89218110  .00002401  00000+0  20888-3 0  9995
2 66834  70.0019   5.9853 0002408 269.9158  90.1725 14.98335853 35584
STARLINK-35890          
1 66835U 25280Q   26198.85881529  .00001126  00000+0  10216-3 0  9999
2 66835  70.0020   6.2683 0002611 266.5369  93.5492 14.98332916 35579
STARLINK-35838          
1 66836U 25280R   26198.90887617  .00001218  00000+0  10980-3 0  9990
2 66836  70.0023   6.0422 0002880 266.1586  93.9244 14.98335603 35583
STARLINK-35729          
1 66837U 25280S   26198.88821837  .00001961  00000+0  17209-3 0  9996
2 66837  70.0020   6.3718 0002496 264.6500  95.4374 14.98325412 35571
STARLINK-35886          
1 66838U 25280T   26198.90486156 -.00000704  00000+0 -51229-4 0  9998
2 66838  70.0025   6.0249 0002770 263.9687  96.1156 14.98331693 35581
STARLINK-35717          
1 66839U 25280U   26198.92156207  .00001473  00000+0  13122-3 0  9993
2 66839  70.0021   6.0843 0003123 268.9460  91.1341 14.98336033 35589
STARLINK-35837          
1 66840U 25280V   26198.87150317  .00002100  00000+0  18374-3 0  9997
2 66840  70.0017   6.3137 0002296 267.7992  92.2904 14.98333421 35576
STARLINK-35715          
1 66841U 25280W   26198.87985415  .00002549  00000+0  22129-3 0  9993
2 66841  70.0023   6.3416 0002594 267.2687  92.8175 14.98333631 35570
STARLINK-35769          
1 66842U 25280X   26198.89652033  .00002656  00000+0  23029-3 0  9992
2 66842  70.0025   5.9967 0002624 275.2411  84.8449 14.98336365 35580
STARLINK-35997          
1 66843U 25280Y   26198.84645640  .00001020  00000+0  93279-4 0  9993
2 66843  70.0020   6.2204 0002862 266.4932  93.5900 14.98334822 35572
STARLINK-36073          
1 66844U 25280Z   26198.86315413  .00001773  00000+0  15635-3 0  9992
2 66844  70.0020   6.2823 0002871 266.9767  93.1063 14.98333512 35549
STARLINK-36068          
1 66845U 25280AA  26198.90067967  .00004774  00000+0  40743-3 0  9998
2 66845  70.0023   6.0103 0003079 265.7790  94.3017 14.98350627 35588
STARLINK-36055          
1 66846U 25280AB  26198.87568177  .00002598  00000+0  22546-3 0  9997
2 66846  70.0021   6.3280 0002845 265.9925  94.0909 14.98332326 35581
STARLINK-36061          
1 66847U 25280AC  26198.88402826  .00002541  00000+0  22064-3 0  9990
2 66847  70.0023   6.3549 0002762 262.8877  97.1968 14.98333963 35578
STARLINK-36091          
1 66848U 25281A   26198.69099186  .00008823  00000+0  32981-3 0  9990
2 66848  43.0039 329.6383 0002115 283.4012  76.6604 15.27576306 34745
STARLINK-36102          
1 66849U 25281B   26198.74609970  .00001797  00000+0  74819-4 0  9995
2 66849  43.0024 329.1890 0001253 259.3250 100.7460 15.27580172 36079
STARLINK-36105          
1 66850U 25281C   26198.74223970  .00012319  00000+0  45630-3 0  9999
2 66850  43.0046 329.1605 0001652 272.3571  87.7091 15.27588785 36075
STARLINK-36094          
1 66851U 25281D   26198.78963816  .00006897  00000+0  25987-3 0  9991
2 66851  43.0012 328.6508 0001151 270.8106  89.2614 15.27586754 36089
STARLINK-35992          
1 66852U 25281E   26198.72039632  .00009576  00000+0  35696-3 0  9991
2 66852  43.0052 328.9927 0002700 279.3480  80.7066 15.27590021 36070
STARLINK-35986          
1 66853U 25281F   26198.71653948  .00010646  00000+0  39566-3 0  9993
2 66853  43.0025 328.9639 0002492 283.3278  76.7296 15.27592439 36074
