OBJECT_NAME,OBJECT_ID,EPOCH,MEAN_MOTION,ECCENTRICITY,INCLINATION,RA_OF_ASC_NODE,ARG_OF_PERICENTER,MEAN_ANOMALY,EPHEMERIS_TYPE,CLASSIFICATION_TYPE,NORAD_CAT_ID,ELEMENT_SET_NO,REV_AT_EPOCH,BSTAR,MEAN_MOTION_DOT,MEAN_MOTION_DDOT
STARLINK-35896,2025-280D,2026-07-17T20:54:44.154432,14.98330598,.00028449,70.0024,6.3146,267.1764,92.9070,0,U,66824,999,3557,.22537767E-3,.2597E-4,0
STARLINK-35476,2025-280E,2026-07-17T21:06:46.834272,14.98319162,.00020738,70.0040,6.3422,281.0011,79.0915,0,U,66825,999,3556,.16471406E-3,.1872E-4,0
STARLINK-35898,2025-280F,2026-07-17T21:30:46.815552,14.98337860,.00028879,70.0023,5.9987,267.4000,92.6829,0,U,66826,999,3558,.22222555E-3,.256E-4,0
STARLINK-35959,2025-280G,2026-07-17T20:42:42.228000,14.98335590,.00027973,70.0021,6.2829,263.5736,96.5105,0,U,66827,999,3557,.22142767E-3,.255E-4,0
STARLINK-35982,2025-280H,2026-07-17T21:00:44.599680,14.98332816,.00027664,70.0022,6.3273,266.6162,93.4681,0,U,66828,999,3557,.22737658E-3,.2621E-4,0
STARLINK-36084,2025-280J,2026-07-17T21:54:47.567520,14.98334593,.00029282,70.0022,6.0557,262.7969,97.2857,0,U,66829,999,3558,.15947599E-3,.1811E-4,0
STARLINK-35881,2025-280K,2026-07-17T21:12:45.777024,14.98334215,.00027615,70.0022,6.3595,265.6716,94.4128,0,U,66830,999,3557,.2212033E-3,.2548E-4,0
STARLINK-35788,2025-280L,2026-07-17T21:36:44.736192,14.98376260,.00030629,70.0024,6.0130,267.1344,92.9465,0,U,66831,999,3558,.85237671E-3,.10104E-3,0
STARLINK-35768,2025-280M,2026-07-17T20:48:42.804576,14.98333621,.00031227,70.0019,6.2974,262.5290,97.5515,0,U,66832,999,3557,.16862934E-3,.192E-4,0
STARLINK-35858,2025-280N,2026-07-17T20:24:38.397888,14.98373867,.00023088,70.0026,6.2404,266.8028,93.2867,0,U,66833,999,3557,.10137E-2,.12036E-3,0
STARLINK-35840,2025-280P,2026-07-17T21:24:44.447040,14.98335853,.00024087,70.0019,5.9853,269.9158,90.1725,0,U,66834,999,3558,.20888439E-3,.2401E-4,0
STARLINK-35890,2025-280Q,2026-07-17T20:36:41.641056,14.98332916,.0002611,70.0020,6.2683,266.5369,93.5492,0,U,66835,999,3557,.10216408E-3,.1126E-4,0
STARLINK-35838,2025-280R,2026-07-17T21:48:46.901088,14.98335603,.00028801,70.0023,6.0422,266.1586,93.9244,0,U,66836,999,3558,.10979514E-3,.1218E-4,0
STARLINK-35729,2025-280S,2026-07-17T21:19:02.067168,14.98325412,.00024969,70.0020,6.3718,264.6500,95.4374,0,U,66837,999,3557,.17209243E-3,.1961E-4,0
STARLINK-35886,2025-280T,2026-07-17T21:43:00.038784,14.98331693,.00027708,70.0025,6.0249,263.9687,96.1156,0,U,66838,999,3558,-.51228584E-4,-.704E-5,0
STARLINK-35717,2025-280U,2026-07-17T22:07:02.962848,14.98336033,.0003123,70.0021,6.0843,268.9460,91.1341,0,U,66839,999,3558,.13121711E-3,.1473E-4,0
STARLINK-35837,2025-280V,2026-07-17T20:54:57.873888,14.98333421,.00022969,70.0017,6.3137,267.7992,92.2904,0,U,66840,999,3557,.18373954E-3,.21E-4,0
STARLINK-35715,2025-280W,2026-07-17T21:06:59.398560,14.98333631,.00025945,70.0023,6.3416,267.2687,92.8175,0,U,66841,999,3557,.22128949E-3,.2549E-4,0
STARLINK-35769,2025-280X,2026-07-17T21:30:59.356512,14.98336365,.00026247,70.0025,5.9967,275.2411,84.8449,0,U,66842,999,3558,.23028699E-3,.2656E-4,0
STARLINK-35997,2025-280Y,2026-07-17T20:18:53.832960,14.98334822,.00028629,70.0020,6.2204,266.4932,93.5900,0,U,66843,999,3557,.93278952E-4,.102E-4,0
STARLINK-36073,2025-280Z,2026-07-17T20:42:56.516832,14.98333512,.00028719,70.0020,6.2823,266.9767,93.1063,0,U,66844,999,3554,.15635385E-3,.1773E-4,0
STARLINK-36068,2025-280AA,2026-07-17T21:36:58.723488,14.98350627,.00030799,70.0023,6.0103,265.7790,94.3017,0,U,66845,999,3558,.40743108E-3,.4774E-4,0
STARLINK-36055,2025-280AB,2026-07-17T21:00:58.904928,14.98332326,.00028454,70.0021,6.3280,265.9925,94.0909,0,U,66846,999,3558,.22545817E-3,.2598E-4,0
STARLINK-36061,2025-280AC,2026-07-17T21:13:00.041664,14.98333963,.00027621,70.0023,6.3549,262.8877,97.1968,0,U,66847,999,3557,.22063826E-3,.2541E-4,0
STARLINK-36091,2025-281A,2026-07-17T16:35:01.696704,15.27576306,.00021159,43.0039,329.6383,283.4012,76.6604,0,U,66848,999,3474,.3298085E-3,.8823E-4,0
STARLINK-36102,2025-281B,2026-07-17T17:54:23.014080,15.27580172,.0001253,43.0024,329.1890,259.3250,100.7460,0,U,66849,999,3607,.74819049E-4,.1797E-4,0
STARLINK-36105,2025-281C,2026-07-17T17:48:49.510080,15.27588785,.00016527,43.0046,329.1605,272.3571,87.7091,0,U,66850,999,3607,.45630369E-3,.12319E-3,0
STARLINK-36094,2025-281D,2026-07-17T18:57:04.737024,15.27586754,.00011515,43.0012,328.6508,270.8106,89.2614,0,U,66851,999,3608,.25986532E-3,.6897E-4,0
STARLINK-35992,2025-281E,2026-07-17T17:17:22.242048,15.27590021,.00027,43.0052,328.9927,279.3480,80.7066,0,U,66852,999,3607,.35696015E-3,.9576E-4,0
STARLINK-35986,2025-281F,2026-07-17T17:11:49.011072,15.27592439,.0002492,43.0025,328.9639,283.3278,76.7296,0,U,66853,999,3607,.39565752E-3,.10646E-3,0
